NORAD_CAT_ID,OBJECT_NAME,OBJECT_TYPE,EPOCH,MEAN_MOTION,ECCENTRICITY,INCLINATION,RA_OF_ASC_NODE,ARG_OF_PERICENTER,MEAN_ANOMALY,BSTAR,MEAN_MOTION_DOT,MEAN_MOTION_DDOT,TLE_LINE0,TLE_LINE1,TLE_LINE2,SEMIMAJOR_AXIS,PERIOD,APOGEE,PERIGEE,DECAYED
55415.0,STARLINK-5618,PAYLOAD,2023-11-19 11:48:49,14.98340368,0.000269,70.0003,45.2295,267.9394,92.1457,-0.00016061,-2.009e-05,0.0,0 STARLINK-5618,1 55415U 23014AA  23323.49223957 -.00002009  00000-0 -16061-3 0  9994,2 55415  70.0003  45.2295 0002690 267.9394  92.1457 14.98340368 44626,6950.161,96.106,573.895,570.156,0.0
55415.0,STARLINK-5618,PAYLOAD,2023-11-19 13:24:58,14.98323169,0.0002493,70.0009,45.0595,264.6955,95.392,-0.00011519,-1.467e-05,0.0,0 STARLINK-5618,1 55415U 23014AA  23323.55900933 -.00001467  00000-0 -11519-3 0  9997,2 55415  70.0009  45.0595 0002493 264.6955  95.3920 14.98323169 45576,6950.214,96.107,573.812,570.346,0.0
55415.0,STARLINK-5618,PAYLOAD,2023-11-19 15:01:05,14.98331353,0.0002571,70.0008,44.8915,262.8648,97.2219,2.5463e-05,2.11e-06,0.0,0 STARLINK-5618,1 55415U 23014AA  23323.62576044  .00000211  00000-0  25463-4 0  9995,2 55415  70.0008  44.8915 0002571 262.8648  97.2219 14.98331353 45581,6950.189,96.107,573.841,570.267,0.0
55415.0,STARLINK-5618,PAYLOAD,2023-11-19 23:01:46,14.98328401,0.0002551,70.0014,44.05,273.4694,86.6173,-1.7962e-05,-3.07e-06,0.0,0 STARLINK-5618,1 55415U 23014AA  23323.95956399 -.00000307  00000-0 -17962-4 0  9999,2 55415  70.0014  44.0500 0002551 273.4694  86.6173 14.98328401 44699,6950.198,96.107,573.836,570.29,0.0
55415.0,STARLINK-5618,PAYLOAD,2023-11-20 11:50:49,14.98336395,0.000267,70.0008,42.7035,267.2006,92.8848,0.00013401,1.507e-05,0.0,0 STARLINK-5618,1 55415U 23014AA  23324.49363352  .00001507  00000-0  13401-3 0  9994,2 55415  70.0008  42.7035 0002670 267.2006  92.8848 14.98336395 44778,6950.173,96.107,573.894,570.182,0.0
55415.0,STARLINK-5618,PAYLOAD,2023-11-20 13:26:57,14.98336395,0.0003109,70.0009,42.5353,259.6024,100.4784,0.00013411,1.508e-05,0.0,0 STARLINK-5618,1 55415U 23014AA  23324.56039198  .00001508  00000-0  13411-3 0  9992,2 55415  70.0009  42.5353 0003109 259.6024 100.4784 14.98336395 45724,6950.173,96.107,574.199,569.877,0.0
55415.0,STARLINK-5618,PAYLOAD,2023-11-20 15:03:06,14.98335252,0.0002833,70.0003,42.3665,265.6443,94.4393,0.0001407,1.586e-05,0.0,0 STARLINK-5618,1 55415U 23014AA  23324.62715384  .00001586  00000-0  14070-3 0  9995,2 55415  70.0003  42.3665 0002833 265.6443  94.4393 14.98335252 45737,6950.177,96.107,574.011,570.073,0.0
55415.0,STARLINK-5618,PAYLOAD,2023-11-21 03:52:10,14.98332178,0.0002836,70.0008,41.0201,267.948,92.1355,1.661e-05,1.05e-06,0.0,0 STARLINK-5618,1 55415U 23014AA  23325.16123764  .00000105  00000-0  16610-4 0  9999,2 55415  70.0008  41.0201 0002836 267.9480  92.1355 14.98332178 44874,6950.186,96.107,574.022,570.08,0.0
55415.0,STARLINK-5618,PAYLOAD,2023-11-21 13:28:58,14.98340592,0.0002724,70.0007,40.0109,269.1109,90.9738,-5.4807e-05,-7.47e-06,0.0,0 STARLINK-5618,1 55415U 23014AA  23325.56179396 -.00000747  00000-0 -54807-4 0  9999,2 55415  70.0007  40.0109 0002724 269.1109  90.9738 14.98340592 45878,6950.16,96.106,573.918,570.132,0.0
55415.0,STARLINK-5618,PAYLOAD,2023-11-21 15:05:07,14.98335104,0.0002846,70.0009,39.8432,270.999,89.0843,5.4201e-05,5.54e-06,0.0,0 STARLINK-5618,1 55415U 23014AA  23325.62855498  .00000554  00000-0  54201-4 0  9992,2 55415  70.0009  39.8432 0002846 270.9990  89.0843 14.98335104 45888,6950.177,96.107,574.02,570.064,0.0
55415.0,STARLINK-5618,PAYLOAD,2023-11-22 11:54:51,14.98337223,0.0002603,70.0015,37.6554,263.4843,96.6019,5.4591e-05,5.59e-06,0.0,0 STARLINK-5618,1 55415U 23014AA  23326.49643058  .00000559  00000-0  54591-4 0  9992,2 55415  70.0015  37.6554 0002603 263.4843  96.6019 14.98337223 45075,6950.171,96.107,573.845,570.226,0.0
55415.0,STARLINK-5618,PAYLOAD,2023-11-22 13:30:59,14.98341818,0.000252,70.0014,37.4866,264.8507,95.2365,3.7795e-05,3.58e-06,0.0,0 STARLINK-5618,1 55415U 23014AA  23326.56318755  .00000358  00000-0  37795-4 0  9997,2 55415  70.0014  37.4866 0002520 264.8507  95.2365 14.98341818 46028,6950.156,96.106,573.773,570.27,0.0
55415.0,STARLINK-5618,PAYLOAD,2023-11-22 15:07:07,14.98343927,0.000259,70.0015,37.3199,268.8302,91.256,0.00011137,1.237e-05,0.0,0 STARLINK-5618,1 55415U 23014AA  23326.62994445  .00001237  00000-0  11137-3 0  9998,2 55415  70.0015  37.3199 0002590 268.8302  91.2560 14.98343927 45093,6950.15,96.106,573.815,570.215,0.0
55415.0,STARLINK-5618,PAYLOAD,2023-11-23 11:56:53,14.98317832,0.0002834,70.0007,35.1298,266.566,93.5175,-0.00012036,-1.528e-05,0.0,0 STARLINK-5618,1 55415U 23014AA  23327.49784659 -.00001528  00000-0 -12036-3 0  9992,2 55415  70.0007  35.1298 0002834 266.5660  93.5175 14.98317832 45221,6950.231,96.108,574.065,570.126,0.0
55415.0,STARLINK-5618,PAYLOAD,2023-11-23 13:33:02,14.98311823,0.0002495,70.0008,34.9629,267.0045,93.0829,1.0151e-05,2.8e-07,0.0,0 STARLINK-5618,1 55415U 23014AA  23327.56460805  .00000028  00000-0  10151-4 0  9993,2 55415  70.0008  34.9629 0002495 267.0045  93.0829 14.98311823 46173,6950.249,96.108,573.848,570.38,0.0
55415.0,STARLINK-5618,PAYLOAD,2023-11-23 15:09:10,14.98311675,0.00025,70.0009,34.7951,269.9297,90.1576,3.5939e-05,3.36e-06,0.0,0 STARLINK-5618,1 55415U 23014AA  23327.63136826  .00000336  00000-0  35939-4 0  9997,2 55415  70.0009  34.7951 0002500 269.9297  90.1576 14.98311675 46180,6950.25,96.108,573.852,570.377,0.0
55415.0,STARLINK-5618,PAYLOAD,2023-11-24 03:58:14,14.98327662,0.0002803,70.0004,33.4482,258.4961,101.5884,-0.00014576,-1.832e-05,0.0,0 STARLINK-5618,1 55415U 23014AA  23328.16544420 -.00001832  00000-0 -14576-3 0  9996,2 55415  70.0004  33.4482 0002803 258.4961 101.5884 14.98327662 45324,6950.2,96.107,574.013,570.117,0.0
55415.0,STARLINK-5618,PAYLOAD,2023-11-24 13:35:02,14.98338529,0.0002216,70.0009,32.4367,254.8821,105.2093,-0.00020072,-2.487e-05,0.0,0 STARLINK-5618,1 55415U 23014AA  23328.56599970 -.00002487  00000-0 -20072-3 0  9995,2 55415  70.0009  32.4367 0002216 254.8821 105.2093 14.98338529 46321,6950.167,96.106,573.572,570.491,0.0
55415.0,STARLINK-5618,PAYLOAD,2023-11-25 13:37:02,14.98326249,0.0002429,70.0013,29.9124,239.8345,120.2573,0.00036691,4.287e-05,0.0,0 STARLINK-5618,1 55415U 23014AA  23329.56739223  .00004287  00000-0  36691-3 0  9995,2 55415  70.0013  29.9124 0002429 239.8345 120.2573 14.98326249 46470,6950.204,96.107,573.758,570.381,0.0
55415.0,STARLINK-5618,PAYLOAD,2023-11-26 12:02:54,14.98350998,0.0002298,70.0024,27.558,234.7691,125.3253,-5.4697e-05,-7.46e-06,0.0,0 STARLINK-5618,1 55415U 23014AA  23330.50202364 -.00000746  00000-0 -54697-4 0  9997,2 55415  70.0024  27.5580 0002298 234.7691 125.3253 14.98350998 45674,6950.128,96.106,573.59,570.396,0.0
55415.0,STARLINK-5618,PAYLOAD,2023-11-26 13:39:02,14.98341106,0.0002417,70.0012,27.3882,247.3119,112.7785,0.00016231,1.845e-05,0.0,0 STARLINK-5618,1 55415U 23014AA  23330.56878401  .00001845  00000-0  16231-3 0  9994,2 55415  70.0012  27.3882 0002417 247.3119 112.7785 14.98341106 46629,6950.159,96.106,573.703,570.344,0.0
55415.0,STARLINK-5618,PAYLOAD,2023-11-27 04:04:17,14.98319859,0.0002401,70.0024,25.8746,252.2792,107.8105,-0.00023432,-2.887e-05,0.0,0 STARLINK-5618,1 55415U 23014AA  23331.16964885 -.00002887  00000-0 -23432-3 0  9993,2 55415  70.0024  25.8746 0002401 252.2792 107.8105 14.98319859 45775,6950.224,96.108,573.758,570.421,0.0
55415.0,STARLINK-5618,PAYLOAD,2023-11-27 12:04:59,14.98303982,0.000209,70.002,25.0323,242.5072,117.5875,-0.00037588,-4.572e-05,0.0,0 STARLINK-5618,1 55415U 23014AA  23331.50346553 -.00004572  00000-0 -37588-3 0  9997,2 55415  70.0020  25.0323 0002090 242.5072 117.5875 14.98303982 45829,6950.273,96.109,573.591,570.686,0.0
55415.0,STARLINK-5618,PAYLOAD,2023-11-27 13:41:07,14.98304404,0.0002101,70.0018,24.8638,257.9312,102.1612,-0.00037698,-4.585e-05,0.0,0 STARLINK-5618,1 55415U 23014AA  23331.57022683 -.00004585  00000-0 -37698-3 0  9995,2 55415  70.0018  24.8638 0002101 257.9312 102.1612 14.98304404 46776,6950.272,96.109,573.597,570.677,0.0
55415.0,STARLINK-5618,PAYLOAD,2023-11-28 12:06:59,14.98325643,0.0002062,70.0017,22.5068,243.6105,116.4842,-0.00010642,-1.362e-05,0.0,0 STARLINK-5618,1 55415U 23014AA  23332.50485145 -.00001362  00000-0 -10642-3 0  9995,2 55415  70.0017  22.5068 0002062 243.6105 116.4842 14.98325643 45977,6950.206,96.107,573.504,570.638,0.0
55415.0,STARLINK-5618,PAYLOAD,2023-11-28 13:43:07,14.98328115,0.0002249,70.0013,22.3392,245.5913,114.5011,-8.5971e-05,-1.118e-05,0.0,0 STARLINK-5618,1 55415U 23014AA  23332.57160940 -.00001118  00000-0 -85971-4 0  9992,2 55415  70.0013  22.3392 0002249 245.5913 114.5011 14.98328115 46926,6950.199,96.107,573.627,570.501,0.0
55415.0,STARLINK-5618,PAYLOAD,2023-11-29 04:08:18,14.98322319,0.0003006,69.9992,20.8219,274.8889,85.1926,0.00037147,4.341e-05,0.0,0 STARLINK-5618,1 55415U 23014AA  23333.17244164  .00004341  00000-0  37147-3 0  9990,2 55415  69.9992  20.8219 0003006 274.8889  85.1926 14.98322319 46073,6950.217,96.107,574.171,569.992,0.0
55415.0,STARLINK-5618,PAYLOAD,2023-11-29 12:08:58,14.98328928,0.0002001,70.0016,19.9812,265.1154,94.9777,0.00044651,5.238e-05,0.0,0 STARLINK-5618,1 55415U 23014AA  23333.50623654  .00005238  00000-0  44651-3 0  9996,2 55415  70.0016  19.9812 0002001 265.1154  94.9777 14.98328928 46123,6950.196,96.107,573.452,570.67,0.0
55415.0,STARLINK-5618,PAYLOAD,2023-11-29 13:45:06,14.98329179,0.0001916,70.0018,19.8128,260.614,99.4802,0.00044077,5.17e-05,0.0,0 STARLINK-5618,1 55415U 23014AA  23333.57299646  .00005170  00000-0  44077-3 0  9990,2 55415  70.0018  19.8128 0001916 260.6140  99.4802 14.98329179 47076,6950.195,96.107,573.392,570.729,0.0
55415.0,STARLINK-5618,PAYLOAD,2023-11-30 12:11:00,14.98330854,0.0002171,70.0011,17.4569,256.7125,103.3792,2.9517e-05,2.59e-06,0.0,0 STARLINK-5618,1 55415U 23014AA  23334.50764370  .00000259  00000-0  29517-4 0  9991,2 55415  70.0011  17.4569 0002171 256.7125 103.3792 14.98330854 46271,6950.19,96.107,573.564,570.546,0.0
